{
    "links": {
        "self": "http://www.neowsapp.com/rest/v1/neo/3388319?api_key=iIulBulltgU6a56xZRHN4H3l9WmuAYTsLGpBGhQ2"
    },
    "id": "3388319",
    "neo_reference_id": "3388319",
    "name": "(2007 TY24)",
    "designation": "2007 TY24",
    "nasa_jpl_url": "http://ssd.jpl.nasa.gov/sbdb.cgi?sstr=3388319",
    "absolute_magnitude_h": 25.3,
    "estimated_diameter": {
        "kilometers": {
            "estimated_diameter_min": 0.0231502122,
            "estimated_diameter_max": 0.0517654482
        },
        "meters": {
            "estimated_diameter_min": 23.150212221,
            "estimated_diameter_max": 51.7654482198
        },
        "miles": {
            "estimated_diameter_min": 0.0143848705,
            "estimated_diameter_max": 0.0321655483
        },
        "feet": {
            "estimated_diameter_min": 75.9521422633,
            "estimated_diameter_max": 169.8341531374
        }
    },
    "is_potentially_hazardous_asteroid": false,
    "close_approach_data": [
        {
            "close_approach_date": "2007-10-06",
            "close_approach_date_full": "2007-Oct-06 15:37",
            "epoch_date_close_approach": 1191685020000,
            "relative_velocity": {
                "kilometers_per_second": "7.064836181",
                "kilometers_per_hour": "25433.4102514442",
                "miles_per_hour": "15803.3320531821"
            },
            "miss_distance": {
                "astronomical": "0.0550997078",
                "lunar": "21.4337863342",
                "kilometers": "8242798.924502386",
                "miles": "5121837.7489134868"
            },
            "orbiting_body": "Earth"
        }
    ],
    "orbital_data": {
        "orbit_id": "11",
        "orbit_determination_date": "2017-04-06 09:05:43",
        "first_observation_date": "2007-10-11",
        "last_observation_date": "2007-10-30",
        "data_arc_in_days": 19,
        "observations_used": 28,
        "orbit_uncertainty": "8",
        "minimum_orbit_intersection": ".0550614",
        "jupiter_tisserand_invariant": "3.213",
        "epoch_osculation": "2454388.5",
        "eccentricity": ".5772590703642088",
        "semi_major_axis": "2.494604099875589",
        "inclination": "4.282540031955164",
        "ascending_node_longitude": "194.3115488454208",
        "orbital_period": "1439.132809950045",
        "perihelion_distance": "1.054571256254663",
        "perihelion_argument": "180.7571691641327",
        "aphelion_distance": "3.934636943496516",
        "perihelion_time": "2454382.004539009618",
        "mean_anomaly": "1.624843753384157",
        "mean_motion": ".2501506445485711",
        "equinox": "J2000",
        "orbit_class": {
            "orbit_class_type": "AMO",
            "orbit_class_description": "Near-Earth asteroid orbits similar to that of 1221 Amor",
            "orbit_class_range": "1.017 AU < q (perihelion) < 1.3 AU"
        }
    },
    "is_sentry_object": false
}